SKYKRAFT-1A             
1 55054U 23001AX  26068.71064616  .00008177  00000+0  30069-3 0  9991
2 55054  97.3349 127.6290 0011277 121.5092 238.7251 15.28083228176529
STARLINK-35878          
1 67178U 25303R   26068.02339645  .00033645  00000+0  12258-2 0  9996
2 67178  43.0020 314.4400 0002915 246.4167 113.6378 15.27598188 12638
